GLOBALSTAR M063 [+]     
1 26081U 00008A   24095.55448874 -.00000080  00000+0  31709-4 0  9992
2 26081  51.9941 186.7557 0005012 188.0651 273.9729 11.86152618105525
GLOBALSTAR M062 [-]     
1 26082U 00008B   24095.86343931 -.00000040  00000+0  41633-3 0  9997
2 26082  51.9848 304.7266 0006254 255.3289 116.5304 12.43432168442097
GLOBALSTAR M060 [-]     
1 26083U 00008C   24095.62250759 -.00000154  00000+0 -62450-3 0  9994
2 26083  52.0012 203.3963 0002754 313.0569  60.1187 12.17626895 98942
GLOBALSTAR M064 [-]     
1 26084U 00008D   24095.81372009 -.00000043  00000+0  56942-3 0  9994
2 26084  52.0026 290.0719 0000678 317.7433  42.3347 11.88517530114978
GLOBALSTAR M065 [+]     
1 31571U 07020A   24095.78924556 -.00000059  00000+0  25056-3 0  9997
2 31571  51.9871 120.5614 0010540  58.6105 112.7836 12.61965600778055
GLOBALSTAR M069 [+]     
1 31573U 07020C   24095.72183267 -.00000086  00000+0  10184-3 0  9995
2 31573  51.9951  76.6861 0000193 295.9599 234.8737 12.62268661779171
GLOBALSTAR M072 [+]     
1 31574U 07020D   24095.92788029 -.00000108  00000+0 -25669-4 0  9996
2 31574  52.0078 171.9320 0000652 151.1803 256.8154 12.62269143777478
GLOBALSTAR M071 [P]     
1 31576U 07020F   24095.66955067 -.00000092  00000+0  66325-4 0  9992
2 31576  52.0060  81.9524 0000713 256.7308 276.7966 12.62270393440352
